[
  {
    "OBJECT_NAME": "COSMOS 2242",
    "OBJECT_ID": "1993-024A",
    "EPOCH": "2026-04-08T15:44:13.584192",
    "MEAN_MOTION": 14.96693381,
    "ECCENTRICITY": 0.00158235,
    "INCLINATION": 82.5183,
    "RA_OF_ASC_NODE": 238.0463,
    "ARG_OF_PERICENTER": 199.9226,
    "MEAN_ANOMALY": 160.138,
    "EPHEMERIS_TYPE": 0,
    "CLASSIFICATION_TYPE": "U",
    "NORAD_CAT_ID": 22626,
    "ELEMENT_SET_NO": 999,
    "REV_AT_EPOCH": 78487,
    "BSTAR": 0.00018761651,
    "MEAN_MOTION_DOT": 2.172e-5,
    "MEAN_MOTION_DDOT": 0
  },
  {
    "OBJECT_NAME": "SL-16 R/B",
    "OBJECT_ID": "1993-059B",
    "EPOCH": "2026-04-08T14:45:40.228416",
    "MEAN_MOTION": 14.17236741,
    "ECCENTRICITY": 0.00167787,
    "INCLINATION": 70.9902,
    "RA_OF_ASC_NODE": 308.0221,
    "ARG_OF_PERICENTER": 171.9669,
    "MEAN_ANOMALY": 188.1727,
    "EPHEMERIS_TYPE": 0,
    "CLASSIFICATION_TYPE": "U",
    "NORAD_CAT_ID": 22803,
    "ELEMENT_SET_NO": 999,
    "REV_AT_EPOCH": 68377,
    "BSTAR": 0.0001467964,
    "MEAN_MOTION_DOT": 2.49e-6,
    "MEAN_MOTION_DDOT": 0
  },
  {
    "OBJECT_NAME": "ARIANE 40 R/B",
    "OBJECT_ID": "1993-061H",
    "EPOCH": "2026-04-08T04:00:20.536704",
    "MEAN_MOTION": 14.32877899,
    "ECCENTRICITY": 0.00105977,
    "INCLINATION": 98.4864,
    "RA_OF_ASC_NODE": 166.465,
    "ARG_OF_PERICENTER": 190.6668,
    "MEAN_ANOMALY": 169.4293,
    "EPHEMERIS_TYPE": 0,
    "CLASSIFICATION_TYPE": "U",
    "NORAD_CAT_ID": 22830,
    "ELEMENT_SET_NO": 999,
    "REV_AT_EPOCH": 69832,
    "BSTAR": 9.2233884e-5,
    "MEAN_MOTION_DOT": 2.09e-6,
    "MEAN_MOTION_DDOT": 0
  },
  {
    "OBJECT_NAME": "COSMOS 2278",
    "OBJECT_ID": "1994-023A",
    "EPOCH": "2026-04-08T10:38:04.299648",
    "MEAN_MOTION": 14.14375869,
    "ECCENTRICITY": 0.00094808,
    "INCLINATION": 71.0502,
    "RA_OF_ASC_NODE": 112.8488,
    "ARG_OF_PERICENTER": 330.2986,
    "MEAN_ANOMALY": 29.7597,
    "EPHEMERIS_TYPE": 0,
    "CLASSIFICATION_TYPE": "U",
    "NORAD_CAT_ID": 23087,
    "ELEMENT_SET_NO": 999,
    "REV_AT_EPOCH": 64901,
    "BSTAR": 9.6777853e-5,
    "MEAN_MOTION_DOT": 1.38e-6,
    "MEAN_MOTION_DDOT": 0
  },
  {
    "OBJECT_NAME": "SL-16 R/B",
    "OBJECT_ID": "1994-023B",
    "EPOCH": "2026-04-08T11:25:38.809632",
    "MEAN_MOTION": 14.15020449,
    "ECCENTRICITY": 0.00056525,
    "INCLINATION": 71.0033,
    "RA_OF_ASC_NODE": 8.3329,
    "ARG_OF_PERICENTER": 260.1791,
    "MEAN_ANOMALY": 99.8694,
    "EPHEMERIS_TYPE": 0,
    "CLASSIFICATION_TYPE": "U",
    "NORAD_CAT_ID": 23088,
    "ELEMENT_SET_NO": 999,
    "REV_AT_EPOCH": 65030,
    "BSTAR": 8.638233e-6,
    "MEAN_MOTION_DOT": -3.1e-7,
    "MEAN_MOTION_DDOT": 0
  },
  {
    "OBJECT_NAME": "SL-16 R/B",
    "OBJECT_ID": "1994-074B",
    "EPOCH": "2026-04-08T15:08:17.246688",
    "MEAN_MOTION": 14.79443869,
    "ECCENTRICITY": 0.00078998,
    "INCLINATION": 97.7063,
    "RA_OF_ASC_NODE": 128.2298,
    "ARG_OF_PERICENTER": 118.2071,
    "MEAN_ANOMALY": 357.3951,
    "EPHEMERIS_TYPE": 0,
    "CLASSIFICATION_TYPE": "U",
    "NORAD_CAT_ID": 23343,
    "ELEMENT_SET_NO": 999,
    "REV_AT_EPOCH": 69167,
    "BSTAR": 6.2411498e-5,
    "MEAN_MOTION_DOT": 4.17e-6,
    "MEAN_MOTION_DDOT": 0
  },
  {
    "OBJECT_NAME": "SL-16 R/B",
    "OBJECT_ID": "1994-077B",
    "EPOCH": "2026-04-08T14:05:57.030432",
    "MEAN_MOTION": 14.15566884,
    "ECCENTRICITY": 0.00013751,
    "INCLINATION": 70.9814,
    "RA_OF_ASC_NODE": 289.59,
    "ARG_OF_PERICENTER": 179.8386,
    "MEAN_ANOMALY": 180.2738,
    "EPHEMERIS_TYPE": 0,
    "CLASSIFICATION_TYPE": "U",
    "NORAD_CAT_ID": 23405,
    "ELEMENT_SET_NO": 999,
    "REV_AT_EPOCH": 62046,
    "BSTAR": -5.1152774e-5,
    "MEAN_MOTION_DOT": -1.48e-6,
    "MEAN_MOTION_DDOT": 0
  },
  {
    "OBJECT_NAME": "ARIANE 40+ R/B",
    "OBJECT_ID": "1995-021B",
    "EPOCH": "2026-04-08T04:55:27.937344",
    "MEAN_MOTION": 14.39795028,
    "ECCENTRICITY": 0.00076789,
    "INCLINATION": 98.4448,
    "RA_OF_ASC_NODE": 169.2805,
    "ARG_OF_PERICENTER": 60.4488,
    "MEAN_ANOMALY": 318.9781,
    "EPHEMERIS_TYPE": 0,
    "CLASSIFICATION_TYPE": "U",
    "NORAD_CAT_ID": 23561,
    "ELEMENT_SET_NO": 999,
    "REV_AT_EPOCH": 62349,
    "BSTAR": 0.00010343019,
    "MEAN_MOTION_DOT": 2.81e-6,
    "MEAN_MOTION_DDOT": 0
  },
  {
    "OBJECT_NAME": "SL-16 R/B",
    "OBJECT_ID": "1995-058B",
    "EPOCH": "2026-04-08T10:54:36.704736",
    "MEAN_MOTION": 14.15498674,
    "ECCENTRICITY": 0.0010437,
    "INCLINATION": 71.0187,
    "RA_OF_ASC_NODE": 117.7658,
    "ARG_OF_PERICENTER": 71.3681,
    "MEAN_ANOMALY": 288.8574,
    "EPHEMERIS_TYPE": 0,
    "CLASSIFICATION_TYPE": "U",
    "NORAD_CAT_ID": 23705,
    "ELEMENT_SET_NO": 999,
    "REV_AT_EPOCH": 57206,
    "BSTAR": 0.00010596277,
    "MEAN_MOTION_DOT": 1.6e-6,
    "MEAN_MOTION_DDOT": 0
  },
  {
    "OBJECT_NAME": "SL-16 R/B",
    "OBJECT_ID": "1996-051B",
    "EPOCH": "2026-04-08T11:39:41.162112",
    "MEAN_MOTION": 14.12424139,
    "ECCENTRICITY": 0.00128771,
    "INCLINATION": 70.7579,
    "RA_OF_ASC_NODE": 112.1723,
    "ARG_OF_PERICENTER": 98.397,
    "MEAN_ANOMALY": 261.8609,
    "EPHEMERIS_TYPE": 0,
    "CLASSIFICATION_TYPE": "U",
    "NORAD_CAT_ID": 24298,
    "ELEMENT_SET_NO": 999,
    "REV_AT_EPOCH": 52585,
    "BSTAR": 5.5139343e-5,
    "MEAN_MOTION_DOT": 5.3e-7,
    "MEAN_MOTION_DDOT": 0
  },
  {
    "OBJECT_NAME": "ORBVIEW 2 (SEASTAR)",
    "OBJECT_ID": "1997-037A",
    "EPOCH": "2026-04-08T11:01:19.022880",
    "MEAN_MOTION": 14.35517023,
    "ECCENTRICITY": 0.0001844,
    "INCLINATION": 98.8619,
    "RA_OF_ASC_NODE": 263.568,
    "ARG_OF_PERICENTER": 2.576,
    "MEAN_ANOMALY": 357.5434,
    "EPHEMERIS_TYPE": 0,
    "CLASSIFICATION_TYPE": "U",
    "NORAD_CAT_ID": 24883,
    "ELEMENT_SET_NO": 999,
    "REV_AT_EPOCH": 51274,
    "BSTAR": 0.00010617908,
    "MEAN_MOTION_DOT": 2.59e-6,
    "MEAN_MOTION_DDOT": 0
  },
  {
    "OBJECT_NAME": "SL-16 R/B",
    "OBJECT_ID": "1998-043G",
    "EPOCH": "2026-04-08T11:32:19.425696",
    "MEAN_MOTION": 14.26057023,
    "ECCENTRICITY": 0.00088217,
    "INCLINATION": 98.8301,
    "RA_OF_ASC_NODE": 52.0648,
    "ARG_OF_PERICENTER": 290.7865,
    "MEAN_ANOMALY": 69.2369,
    "EPHEMERIS_TYPE": 0,
    "CLASSIFICATION_TYPE": "U",
    "NORAD_CAT_ID": 25400,
    "ELEMENT_SET_NO": 999,
    "REV_AT_EPOCH": 44323,
    "BSTAR": 4.4395509e-5,
    "MEAN_MOTION_DOT": 6.1e-7,
    "MEAN_MOTION_DDOT": 0
  },
  {
    "OBJECT_NAME": "SL-16 R/B",
    "OBJECT_ID": "1998-045B",
    "EPOCH": "2026-04-08T10:49:17.394528",
    "MEAN_MOTION": 14.16195306,
    "ECCENTRICITY": 0.00084445,
    "INCLINATION": 71.0087,
    "RA_OF_ASC_NODE": 118.9883,
    "ARG_OF_PERICENTER": 325.2817,
    "MEAN_ANOMALY": 34.7754,
    "EPHEMERIS_TYPE": 0,
    "CLASSIFICATION_TYPE": "U",
    "NORAD_CAT_ID": 25407,
    "ELEMENT_SET_NO": 999,
    "REV_AT_EPOCH": 43131,
    "BSTAR": 0.00015425107,
    "MEAN_MOTION_DOT": 2.58e-6,
    "MEAN_MOTION_DDOT": 0
  },
  {
    "OBJECT_NAME": "ISS (ZARYA)",
    "OBJECT_ID": "1998-067A",
    "EPOCH": "2026-04-08T12:30:47.352960",
    "MEAN_MOTION": 15.48832031,
    "ECCENTRICITY": 0.00063527,
    "INCLINATION": 51.633,
    "RA_OF_ASC_NODE": 284.8633,
    "ARG_OF_PERICENTER": 287.8392,
    "MEAN_ANOMALY": 72.1903,
    "EPHEMERIS_TYPE": 0,
    "CLASSIFICATION_TYPE": "U",
    "NORAD_CAT_ID": 25544,
    "ELEMENT_SET_NO": 999,
    "REV_AT_EPOCH": 56095,
    "BSTAR": 0.00013194905,
    "MEAN_MOTION_DOT": 6.786e-5,
    "MEAN_MOTION_DDOT": 0
  }
]
