{"fetched_at":"2026-04-09T09:08:13Z","count":5311,"tles":[{"name":"COSMOS 2278","line1":"1 23087U 94023A   26098.44310532  .00000138  00000+0  96778-4 0  9997","line2":"2 23087  71.0502 112.8488 0009480 330.2986  29.7597 14.14375869649018","category":"Other"},{"name":"COSMOS 2242","line1":"1 22626U 93024A   26098.65571278  .00002172  00000+0  18762-3 0  9990","line2":"2 22626  82.5183 238.0463 0015823 199.9226 160.1380 14.96693381784873","category":"Other"},{"name":"SL-16 R/B","line1":"1 23088U 94023B   26098.47614363 -.00000031  00000+0  86382-5 0  9994","line2":"2 23088  71.0033   8.3329 0005652 260.1791  99.8694 14.15020449650305","category":"Other"},{"name":"SL-16 R/B","line1":"1 22803U 93059B   26098.61504894  .00000249  00000+0  14680-3 0  9999","line2":"2 22803  70.9902 308.0221 0016778 171.9669 188.1727 14.17236741683779","category":"Other"},{"name":"SL-16 R/B","line1":"1 24298U 96051B   26098.48589308  .00000053  00000+0  55139-4 0  9990","line2":"2 24298  70.7579 112.1723 0012877  98.3970 261.8609 14.12424139525858","category":"Other"},{"name":"SL-16 R/B","line1":"1 25400U 98043G   26098.48078039  .00000061  00000+0  44396-4 0  9995","line2":"2 25400  98.8301  52.0648 0008821 290.7865  69.2369 14.26057023443234","category":"Other"},{"name":"ORBVIEW 2 (SEASTAR)","line1":"1 24883U 97037A   26098.45924795  .00000259  00000+0  10618-3 0  9995","line2":"2 24883  98.8619 263.5680 0001844   2.5760 357.5434 14.35517023512746","category":"Other"},{"name":"ARIANE 40 R/B","line1":"1 22830U 93061H   26098.16690436  .00000209  00000+0  92234-4 0  9998","line2":"2 22830  98.4864 166.4650 0010597 190.6668 169.4293 14.32877899698322","category":"Other"},{"name":"SL-16 R/B","line1":"1 25407U 98045B   26098.45089577  .00000258  00000+0  15425-3 0  9998","line2":"2 25407  71.0087 118.9883 0008444 325.2817  34.7754 14.16195306431317","category":"Other"},{"name":"ARIANE 40+ R/B","line1":"1 23561U 95021B   26098.20518446  .00000281  00000+0  10343-3 0  9993","line2":"2 23561  98.4448 169.2805 0007678  60.4488 318.9781 14.39795028623494","category":"Other"},{"name":"SL-16 R/B","line1":"1 23343U 94074B   26098.63075517  .00000417  00000+0  62411-4 0  9997","line2":"2 23343  97.7063 128.2298 0007899 118.2071 357.3951 14.79443869691671","category":"Other"},{"name":"ISS (ZARYA)","line1":"1 25544U 98067A   26098.52138140  .00006786  00000+0  13195-3 0  9997","line2":"2 25544  51.6330 284.8633 0006352 287.8392  72.1903 15.48832031560951","category":"ISS"},{"name":"SL-16 R/B","line1":"1 23405U 94077B   26098.58746563 -.00000148  00000+0 -51153-4 0  9993","line2":"2 23405  70.9814 289.5900 0001375 179.8386 180.2738 14.15566884620461","category":"Other"},{"name":"SL-16 R/B","line1":"1 23705U 95058B   26098.45459149  .00000160  00000+0  10596-3 0  9990","line2":"2 23705  71.0187 117.7658 0010437  71.3681 288.8574 14.15498674572060","category":"Other"}]}